00433   11.16  0.46 K156R 343.36749  178.81265  304.33209   10.82894  0.2226580  0.55991439   1.4578795  0 MPO328651  6894  49 1893-2014 0.66 M-v 38h MPCLINUX   1804    (433) Eros               20141222
00719   15.5   0.15 K156R  86.57843  155.87475  184.03293   11.55462  0.5515866  0.23095976   2.6309454  0 MPO328655  1067  14 1911-2015 0.42 M-v 38h MPCLINUX   1804    (719) Albert             20150212
00887   13.4  -0.12 K156R 199.86409  350.34437  110.55302    9.35849  0.5673228  0.25256702   2.4786676  0 MPO305433   767  30 1918-2014 0.73 M-h 3Eh MPCLINUX   1804    (887) Alinda             20140704
01036    9.45  0.30 K156R 316.46138  132.48164  215.55737   26.69249  0.5339282  0.22678642   2.6631238  0 MPO332823  3779  55 1924-2015 0.50 M-v 38h MPCLINUX   1804   (1036) Ganymed            20150330
01221   17.7   0.15 K156R  91.37382   26.63373  171.34555   11.87895  0.4353766  0.37063158   1.9194395  0 MPO244183   340   9 1932-2012 1.28 M-v 3Eh MPCW       1804   (1221) Amor               20121104
01566   16.9   0.15 K156R  47.21833   31.37408   88.01999   22.83120  0.8269260  0.88051584   1.0780641  0 MPO298968   742  32 1949-2014 1.18 M-v 3Eh MPCW       9803   (1566) Icarus             20140624
01580   14.5   0.15 K156R  10.37022  159.46667   62.30613   52.08191  0.4874923  0.30260879   2.1972612  0 MPO328670   552  22 1950-2015 0.68 M-v 38h MPCLINUX   1804   (1580) Betulia            20150207
01620   15.60  0.15 K156R  38.62379  276.88958  337.21723   13.33778  0.3353837  0.70913398   1.2454239  0 MPO332830  3062  30 1951-2015 1.92 M-v 3Eh MPCW       9803   (1620) Geographos         20150307
01627   13.2   0.60 K156R 278.88050  167.77039  133.14925    8.45120  0.3964845  0.38755928   1.8631334  0 MPO332830  4428  28 1929-2015 0.44 M-v 38h MPCLINUX   1804   (1627) Ivar               20150401
01685   14.23  0.15 K156R 260.89089  127.11025  274.30231    9.38092  0.4358740  0.61651141   1.3672312  0 MPO328671  1560  33 1948-2015 0.54 M-v 3Eh MPCW       1803   (1685) Toro               20150209
